{"type": "FeatureCollection", "features": [ {"type": "Feature", "properties": {"norad_id": 33799, "name": "COSMOS 2251 DEB", "group": "cosmos-2251-debris", "lat": 32.93218311348646, "lon": 96.64842132866688, "alt_km": 637.4489451618601, "timestamp": "2025-12-10T14:53:37.480730+00:00", "meta": {"OBJECT_NAME": "COSMOS 2251 DEB", "OBJECT_ID": "1993-036AQ", "EPOCH": "2025-12-10T06:43:45.510240", "MEAN_MOTION": 14.79518873, "ECCENTRICITY": 0.00236264, "INCLINATION": 74.0319, "RA_OF_ASC_NODE": 86.6295, "ARG_OF_PERICENTER": 158.1684, "MEAN_ANOMALY": 225.424, "EPHEMERIS_TYPE": 0, "CLASSIFICATION_TYPE": "U", "NORAD_CAT_ID": 33799, "ELEMENT_SET_NO": 999, "REV_AT_EPOCH": 88775, "BSTAR": 0.0017618858, "MEAN_MOTION_DOT": 0.00013233, "MEAN_MOTION_DDOT": 0}, "tle": {"line1": "1 33799U 93036AQ  25344.28038785  .00013233  00000+0  17619-2 0  9998", "line2": "2 33799  74.0319  86.6295 0023626 158.1684 225.4240 14.79518873887752"}}, "geometry": {"type": "Point", "coordinates": [96.64842132866688, 32.93218311348646]}}, {"type": "Feature", "properties": {"norad_id": 33805, "name": "COSMOS 2251 DEB", "group": "cosmos-2251-debris", "lat": -24.385270573619266, "lon": -52.09589042032236, "alt_km": 747.3940929798255, "timestamp": "2025-12-10T14:53:37.480740+00:00", "meta": {"OBJECT_NAME": "COSMOS 2251 DEB", "OBJECT_ID": "1993-036AW", "EPOCH": "2025-12-10T06:46:36.110496", "MEAN_MOTION": 14.57847021, "ECCENTRICITY": 0.00602959, "INCLINATION": 74.0305, "RA_OF_ASC_NODE": 316.0058, "ARG_OF_PERICENTER": 145.694, "MEAN_ANOMALY": 214.8143, "EPHEMERIS_TYPE": 0, "CLASSIFICATION_TYPE": "U", "NORAD_CAT_ID": 33805, "ELEMENT_SET_NO": 999, "REV_AT_EPOCH": 89191, "BSTAR": 0.00038795471, "MEAN_MOTION_DOT": 1.791e-05, "MEAN_MOTION_DDOT": 0}, "tle": {"line1": "1 33805U 93036AW  25344.28236239  .00001791  00000+0  38795-3 0  9995", "line2": "2 33805  74.0305 316.0058 0060295 145.6940 214.8143 14.57847021891914"}}, "geometry": {"type": "Point", "coordinates": [-52.09589042032236, -24.385270573619266]}}, {"type": "Feature", "properties": {"norad_id": 33811, "name": "COSMOS 2251 DEB", "group": "cosmos-2251-debris", "lat": -21.091607159545735, "lon": 133.47337301481568, "alt_km": 577.149157860672, "timestamp": "2025-12-10T14:53:37.480749+00:00", "meta": {"OBJECT_NAME": "COSMOS 2251 DEB", "OBJECT_ID": "1993-036BC", "EPOCH": "2025-12-10T08:17:22.878816", "MEAN_MOTION": 15.0514338, "ECCENTRICITY": 0.00307092, "INCLINATION": 73.8381, "RA_OF_ASC_NODE": 307.6214, "ARG_OF_PERICENTER": 28.5111, "MEAN_ANOMALY": 122.9569, "EPHEMERIS_TYPE": 0, "CLASSIFICATION_TYPE": "U", "NORAD_CAT_ID": 33811, "ELEMENT_SET_NO": 999, "REV_AT_EPOCH": 89982, "BSTAR": 0.0018554716, "MEAN_MOTION_DOT": 0.00026775, "MEAN_MOTION_DDOT": 0}, "tle": {"line1": "1 33811U 93036BC  25344.34540369  .00026775  00000+0  18555-2 0  9991", "line2": "2 33811  73.8381 307.6214 0030709  28.5111 122.9569 15.05143380899828"}}, "geometry": {"type": "Point", "coordinates": [133.47337301481568, -21.091607159545735]}}, {"type": "Feature", "properties": {"norad_id": 33815, "name": "COSMOS 2251 DEB", "group": "cosmos-2251-debris", "lat": 4.29757153879235, "lon": -0.20639137839689098, "alt_km": 515.5335872202904, "timestamp": "2025-12-10T14:53:37.480759+00:00", "meta": {"OBJECT_NAME": "COSMOS 2251 DEB", "OBJECT_ID": "1993-036BG", "EPOCH": "2025-12-10T00:34:36.803712", "MEAN_MOTION": 15.1696459, "ECCENTRICITY": 0.00027751, "INCLINATION": 73.9523, "RA_OF_ASC_NODE": 182.2836, "ARG_OF_PERICENTER": 231.9732, "MEAN_ANOMALY": 286.9539, "EPHEMERIS_TYPE": 0, "CLASSIFICATION_TYPE": "U", "NORAD_CAT_ID": 33815, "ELEMENT_SET_NO": 999, "REV_AT_EPOCH": 88329, "BSTAR": 0.0073023687, "MEAN_MOTION_DOT": 0.00147157, "MEAN_MOTION_DDOT": 0}, "tle": {"line1": "1 33815U 93036BG  25344.02403708  .00147157  00000+0  73024-2 0  9995", "line2": "2 33815  73.9523 182.2836 0002775 231.9732 286.9539 15.16964590883297"}}, "geometry": {"type": "Point", "coordinates": [-0.20639137839689098, 4.29757153879235]}}, {"type": "Feature", "properties": {"norad_id": 33816, "name": "COSMOS 2251 DEB", "group": "cosmos-2251-debris", "lat": -9.623800341840624, "lon": 106.1797463065003, "alt_km": 1089.0761008205636, "timestamp": "2025-12-10T14:53:37.480769+00:00", "meta": {"OBJECT_NAME": "COSMOS 2251 DEB", "OBJECT_ID": "1993-036BH", "EPOCH": "2025-12-09T18:05:34.178784", "MEAN_MOTION": 13.81777486, "ECCENTRICITY": 0.026487, "INCLINATION": 73.8946, "RA_OF_ASC_NODE": 110.4563, "ARG_OF_PERICENTER": 123.9698, "MEAN_ANOMALY": 238.6904, "EPHEMERIS_TYPE": 0, "CLASSIFICATION_TYPE": "U", "NORAD_CAT_ID": 33816, "ELEMENT_SET_NO": 999, "REV_AT_EPOCH": 84632, "BSTAR": 0.0008546006, "MEAN_MOTION_DOT": 1.173e-05, "MEAN_MOTION_DDOT": 0}, "tle": {"line1": "1 33816U 93036BH  25343.75386781  .00001173  00000+0  85460-3 0  9991", "line2": "2 33816  73.8946 110.4563 0264870 123.9698 238.6904 13.81777486846322"}}, "geometry": {"type": "Point", "coordinates": [106.1797463065003, -9.623800341840624]}}, {"type": "Feature", "properties": {"norad_id": 33818, "name": "COSMOS 2251 DEB", "group": "cosmos-2251-debris", "lat": 69.28059651955819, "lon": -58.38857053580424, "alt_km": 511.8518082389219, "timestamp": "2025-12-10T14:53:37.480778+00:00", "meta": {"OBJECT_NAME": "COSMOS 2251 DEB", "OBJECT_ID": "1993-036BK", "EPOCH": "2025-12-10T07:16:21.222624", "MEAN_MOTION": 15.12178894, "ECCENTRICITY": 0.00277204, "INCLINATION": 74.0757, "RA_OF_ASC_NODE": 171.2766, "ARG_OF_PERICENTER": 160.9618, "MEAN_ANOMALY": 14.7346, "EPHEMERIS_TYPE": 0, "CLASSIFICATION_TYPE": "U", "NORAD_CAT_ID": 33818, "ELEMENT_SET_NO": 999, "REV_AT_EPOCH": 89825, "BSTAR": 0.0033414623, "MEAN_MOTION_DOT": 0.00058639, "MEAN_MOTION_DDOT": 0}, "tle": {"line1": "1 33818U 93036BK  25344.30302341  .00058639  00000+0  33415-2 0  9996", "line2": "2 33818  74.0757 171.2766 0027720 160.9618  14.7346 15.12178894898257"}}, "geometry": {"type": "Point", "coordinates": [-58.38857053580424, 69.28059651955819]}}, {"type": "Feature", "properties": {"norad_id": 33819, "name": "COSMOS 2251 DEB", "group": "cosmos-2251-debris", "lat": 56.9373904386588, "lon": 7.856341259427507, "alt_km": 732.1879435864812, "timestamp": "2025-12-10T14:53:37.480788+00:00", "meta": {"OBJECT_NAME": "COSMOS 2251 DEB", "OBJECT_ID": "1993-036BL", "EPOCH": "2025-12-10T03:20:40.838784", "MEAN_MOTION": 14.32207831, "ECCENTRICITY": 0.0088985, "INCLINATION": 74.1789, "RA_OF_ASC_NODE": 214.5492, "ARG_OF_PERICENTER": 76.6631, "MEAN_ANOMALY": 81.8987, "EPHEMERIS_TYPE": 0, "CLASSIFICATION_TYPE": "U", "NORAD_CAT_ID": 33819, "ELEMENT_SET_NO": 999, "REV_AT_EPOCH": 87458, "BSTAR": 0.000847282, "MEAN_MOTION_DOT": 2.361e-05, "MEAN_MOTION_DDOT": 0}, "tle": {"line1": "1 33819U 93036BL  25344.13936156  .00002361  00000+0  84728-3 0  9990", "line2": "2 33819  74.1789 214.5492 0088985  76.6631  81.8987 14.32207831874580"}}, "geometry": {"type": "Point", "coordinates": [7.856341259427507, 56.9373904386588]}}, {"type": "Feature", "properties": {"norad_id": 33821, "name": "COSMOS 2251 DEB", "group": "cosmos-2251-debris", "lat": 12.130249289044368, "lon": -36.2118575316579, "alt_km": 456.4985961958, "timestamp": "2025-12-10T14:53:37.480797+00:00", "meta": {"OBJECT_NAME": "COSMOS 2251 DEB", "OBJECT_ID": "1993-036BN", "EPOCH": "2025-12-10T03:08:28.997952", "MEAN_MOTION": 15.25053477, "ECCENTRICITY": 0.00525576, "INCLINATION": 74.0302, "RA_OF_ASC_NODE": 148.3514, "ARG_OF_PERICENTER": 182.5857, "MEAN_ANOMALY": 177.508, "EPHEMERIS_TYPE": 0, "CLASSIFICATION_TYPE": "U", "NORAD_CAT_ID": 33821, "ELEMENT_SET_NO": 999, "REV_AT_EPOCH": 74961, "BSTAR": 0.0016907876, "MEAN_MOTION_DOT": 0.0004419, "MEAN_MOTION_DDOT": 0}, "tle": {"line1": "1 33821U 93036BN  25344.13089118  .00044190  00000+0  16908-2 0  9990", "line2": "2 33821  74.0302 148.3514 0052557 182.5857 177.5080 15.25053477749615"}}, "geometry": {"type": "Point", "coordinates": [-36.2118575316579, 12.130249289044368]}}, {"type": "Feature", "properties": {"norad_id": 33822, "name": "COSMOS 2251 DEB", "group": "cosmos-2251-debris", "lat": 74.05133399189813, "lon": -70.66873316833608, "alt_km": 940.7008660219735, "timestamp": "2025-12-10T14:53:37.480807+00:00", "meta": {"OBJECT_NAME": "COSMOS 2251 DEB", "OBJECT_ID": "1993-036BP", "EPOCH": "2025-12-10T01:36:13.316256", "MEAN_MOTION": 14.13049024, "ECCENTRICITY": 0.01535444, "INCLINATION": 74.0693, "RA_OF_ASC_NODE": 198.4005, "ARG_OF_PERICENTER": 245.3617, "MEAN_ANOMALY": 270.1339, "EPHEMERIS_TYPE": 0, "CLASSIFICATION_TYPE": "U", "NORAD_CAT_ID": 33822, "ELEMENT_SET_NO": 999, "REV_AT_EPOCH": 86016, "BSTAR": 0.0016004442, "MEAN_MOTION_DOT": 3.317e-05, "MEAN_MOTION_DDOT": 0}, "tle": {"line1": "1 33822U 93036BP  25344.06682079  .00003317  00000+0  16004-2 0  9991", "line2": "2 33822  74.0693 198.4005 0153544 245.3617 270.1339 14.13049024860160"}}, "geometry": {"type": "Point", "coordinates": [-70.66873316833608, 74.05133399189813]}}, {"type": "Feature", "properties": {"norad_id": 33823, "name": "COSMOS 2251 DEB", "group": "cosmos-2251-debris", "lat": 22.188862545885247, "lon": 159.8503111762895, "alt_km": 932.4447680670637, "timestamp": "2025-12-10T14:53:37.480816+00:00", "meta": {"OBJECT_NAME": "COSMOS 2251 DEB", "OBJECT_ID": "1993-036BQ", "EPOCH": "2025-12-10T05:20:13.784064", "MEAN_MOTION": 13.98940167, "ECCENTRICITY": 0.02093222, "INCLINATION": 73.8096, "RA_OF_ASC_NODE": 153.7426, "ARG_OF_PERICENTER": 279.3119, "MEAN_ANOMALY": 257.0196, "EPHEMERIS_TYPE": 0, "CLASSIFICATION_TYPE": "U", "NORAD_CAT_ID": 33823, "ELEMENT_SET_NO": 999, "REV_AT_EPOCH": 85574, "BSTAR": 0.0010281126, "MEAN_MOTION_DOT": 1.764e-05, "MEAN_MOTION_DDOT": 0}, "tle": {"line1": "1 33823U 93036BQ  25344.22238176  .00001764  00000+0  10281-2 0  9990", "line2": "2 33823  73.8096 153.7426 0209322 279.3119 257.0196 13.98940167855749"}}, "geometry": {"type": "Point", "coordinates": [159.8503111762895, 22.188862545885247]}}]}